{
    "links": {
        "self": "http://www.neowsapp.com/rest/v1/neo/3529599?api_key=iIulBulltgU6a56xZRHN4H3l9WmuAYTsLGpBGhQ2"
    },
    "id": "3529599",
    "neo_reference_id": "3529599",
    "name": "(2010 LZ63)",
    "designation": "2010 LZ63",
    "nasa_jpl_url": "http://ssd.jpl.nasa.gov/sbdb.cgi?sstr=3529599",
    "absolute_magnitude_h": 20.1,
    "estimated_diameter": {
        "kilometers": {
            "estimated_diameter_min": 0.2538370294,
            "estimated_diameter_max": 0.5675968529
        },
        "meters": {
            "estimated_diameter_min": 253.8370293645,
            "estimated_diameter_max": 567.5968528656
        },
        "miles": {
            "estimated_diameter_min": 0.1577269688,
            "estimated_diameter_max": 0.3526882241
        },
        "feet": {
            "estimated_diameter_min": 832.7986794202,
            "estimated_diameter_max": 1862.1944587557
        }
    },
    "is_potentially_hazardous_asteroid": true,
    "close_approach_data": [
        {
            "close_approach_date": "2010-06-30",
            "close_approach_date_full": "2010-Jun-30 16:18",
            "epoch_date_close_approach": 1277914680000,
            "relative_velocity": {
                "kilometers_per_second": "27.8030257292",
                "kilometers_per_hour": "100090.8926249429",
                "miles_per_hour": "62192.5882535374"
            },
            "miss_distance": {
                "astronomical": "0.1341149429",
                "lunar": "52.1707127881",
                "kilometers": "20063309.793011623",
                "miles": "12466762.6139134774"
            },
            "orbiting_body": "Earth"
        },
        {
            "close_approach_date": "2077-02-07",
            "close_approach_date_full": "2077-Feb-07 16:08",
            "epoch_date_close_approach": 3379939680000,
            "relative_velocity": {
                "kilometers_per_second": "27.7923792962",
                "kilometers_per_hour": "100052.5654664503",
                "miles_per_hour": "62168.7732477508"
            },
            "miss_distance": {
                "astronomical": "0.0265123581",
                "lunar": "10.3133073009",
                "kilometers": "3966192.300437247",
                "miles": "2464477.6161461286"
            },
            "orbiting_body": "Venus"
        }
    ],
    "orbital_data": {
        "orbit_id": "12",
        "orbit_determination_date": "2017-04-06 08:57:21",
        "first_observation_date": "2010-06-12",
        "last_observation_date": "2010-06-27",
        "data_arc_in_days": 15,
        "observations_used": 20,
        "orbit_uncertainty": "9",
        "minimum_orbit_intersection": ".0131625",
        "jupiter_tisserand_invariant": "3.465",
        "epoch_osculation": "2455363.5",
        "eccentricity": ".7654549896641221",
        "semi_major_axis": "1.923488205164094",
        "inclination": "13.95341478600738",
        "ascending_node_longitude": "307.7241705483157",
        "orbital_period": "974.3897756000516",
        "perihelion_distance": ".4511445609611517",
        "perihelion_argument": "78.72708297925692",
        "aphelion_distance": "3.395831849367036",
        "perihelion_time": "2455422.663531856223",
        "mean_anomaly": "338.1413229063041",
        "mean_motion": ".3694620048515018",
        "equinox": "J2000",
        "orbit_class": {
            "orbit_class_type": "APO",
            "orbit_class_description": "Near-Earth asteroid orbits which cross the Earth’s orbit similar to that of 1862 Apollo",
            "orbit_class_range": "a (semi-major axis) > 1.0 AU; q (perihelion) < 1.017 AU"
        }
    },
    "is_sentry_object": false
}